{
    "links": {
        "self": "http://www.neowsapp.com/rest/v1/neo/3831734?api_key=iIulBulltgU6a56xZRHN4H3l9WmuAYTsLGpBGhQ2"
    },
    "id": "3831734",
    "neo_reference_id": "3831734",
    "name": "(2018 TZ4)",
    "designation": "2018 TZ4",
    "nasa_jpl_url": "http://ssd.jpl.nasa.gov/sbdb.cgi?sstr=3831734",
    "absolute_magnitude_h": 23.7,
    "estimated_diameter": {
        "kilometers": {
            "estimated_diameter_min": 0.0483676488,
            "estimated_diameter_max": 0.1081533507
        },
        "meters": {
            "estimated_diameter_min": 48.3676488219,
            "estimated_diameter_max": 108.1533506775
        },
        "miles": {
            "estimated_diameter_min": 0.0300542543,
            "estimated_diameter_max": 0.0672033557
        },
        "feet": {
            "estimated_diameter_min": 158.6865169607,
            "estimated_diameter_max": 354.8338390368
        }
    },
    "is_potentially_hazardous_asteroid": false,
    "close_approach_data": [
        {
            "close_approach_date": "2018-10-04",
            "close_approach_date_full": "2018-Oct-04 00:58",
            "epoch_date_close_approach": 1538614680000,
            "relative_velocity": {
                "kilometers_per_second": "15.0519876362",
                "kilometers_per_hour": "54187.1554903038",
                "miles_per_hour": "33669.7911434057"
            },
            "miss_distance": {
                "astronomical": "0.0606653353",
                "lunar": "23.5988154317",
                "kilometers": "9075404.943715811",
                "miles": "5639195.1390717518"
            },
            "orbiting_body": "Earth"
        }
    ],
    "orbital_data": {
        "orbit_id": "7",
        "orbit_determination_date": "2018-10-29 07:00:00",
        "first_observation_date": "2018-10-10",
        "last_observation_date": "2018-10-28",
        "data_arc_in_days": 18,
        "observations_used": 45,
        "orbit_uncertainty": "7",
        "minimum_orbit_intersection": ".0228591",
        "jupiter_tisserand_invariant": "3.188",
        "epoch_osculation": "2459000.5",
        "eccentricity": ".6557180253700291",
        "semi_major_axis": "2.38083855845847",
        "inclination": "10.93559401852125",
        "ascending_node_longitude": "201.8016436966275",
        "orbital_period": "1341.817179958571",
        "perihelion_distance": ".8196798001812556",
        "perihelion_argument": "115.6458730544648",
        "aphelion_distance": "3.941997316735685",
        "perihelion_time": "2458358.212321716904",
        "mean_anomaly": "172.3212130799025",
        "mean_motion": ".2682928832459242",
        "equinox": "J2000",
        "orbit_class": {
            "orbit_class_type": "APO",
            "orbit_class_description": "Near-Earth asteroid orbits which cross the Earth’s orbit similar to that of 1862 Apollo",
            "orbit_class_range": "a (semi-major axis) > 1.0 AU; q (perihelion) < 1.017 AU"
        }
    },
    "is_sentry_object": false
}